[{"OBJECT_NAME":"TIANMU-1 21","OBJECT_ID":"2023-208C","EPOCH":"2026-03-09T21:48:13.065120","MEAN_MOTION":15.33041299,"ECCENTRICITY":0.00059807,"INCLINATION":97.4378,"RA_OF_ASC_NODE":187.7048,"ARG_OF_PERICENTER":317.2488,"MEAN_ANOMALY":42.8288,"EPHEMERIS_TYPE":0,"CLASSIFICATION_TYPE":"U","NORAD_CAT_ID":58662,"ELEMENT_SET_NO":999,"REV_AT_EPOCH":12234,"BSTAR":0.00040063782,"MEAN_MOTION_DOT":0.00012722,"MEAN_MOTION_DDOT":0},{"OBJECT_NAME":"STARLINK-34771","OBJECT_ID":"2025-167A","EPOCH":"2026-03-09T03:37:42.149856","MEAN_MOTION":15.30197852,"ECCENTRICITY":0.00010794,"INCLINATION":53.1615,"RA_OF_ASC_NODE":26.6352,"ARG_OF_PERICENTER":70.3215,"MEAN_ANOMALY":289.7903,"EPHEMERIS_TYPE":0,"CLASSIFICATION_TYPE":"U","NORAD_CAT_ID":65078,"ELEMENT_SET_NO":999,"REV_AT_EPOCH":3343,"BSTAR":0.0011303519,"MEAN_MOTION_DOT":0.00033266,"MEAN_MOTION_DDOT":0}]
